CAS-2T & KS-1Q          
1 41847U 16066G   20212.76332289  .00000044  00000-0  16143-4 0  9997
2 41847  98.6507 263.7074 0366799  99.8714 264.4081 14.38080992195642
NAYIF-1 (EO-88)         
1 42017U 17008BX  20212.68067966  .00001154  00000-0  46826-4 0  9996
2 42017  97.3575 279.6092 0006831 155.1299 205.0271 15.26595698192147
MAX VALIER SAT          
1 42778U 17036P   20212.78127051  .00000643  00000-0  30533-4 0  9994
2 42778  97.3019 265.2128 0010928 223.6223 136.4150 15.22681394172321
RADFXSAT (FOX-1B)       
1 43017U 17073E   20212.75655542  .00000220  00000-0  23253-4 0  9992
2 43017  97.7202 123.3216 0255312 269.2999  87.8955 14.78981122145562
FOX-1D (AO-92)          
1 43137U 18004AC  20212.74882185  .00000709  00000-0  32053-4 0  9994
2 43137  97.4437 283.6138 0007456 261.9916  98.0476 15.24189454141644
DIWATA-2B               
1 43678U 18084H   20212.80904647 -.00000299  00000-0 -24051-4 0  9992
2 43678  97.8893 331.2227 0010854  39.8984 320.3050 14.91637779 95486
ES'HAIL 2               
1 43700U 18090A   20212.05588035  .00000131  00000-0  00000-0 0  9998
2 43700   0.0207  71.5962 0002031  79.1957 203.2376  1.00271189  6131
FOX-1CLIFF (AO-95)      
1 43770U 18099N   20212.74606867  .00000584  00000-0  58509-4 0  9997
2 43770  97.7039 283.3681 0015823  56.7728 303.5007 14.95013124 90381
ITASAT 1                
1 43786U 18099AE  20212.73322375  .00000253  00000-0  28048-4 0  9990
2 43786  97.7053 283.8061 0016237  50.4814 309.7840 14.95346897 90400
JY1SAT (JO-97)          
1 43803U 18099AX  20212.67567979  .00000577  00000-0  57093-4 0  9995
2 43803  97.7014 283.5581 0016255  51.3044 308.9628 14.95529335 90399
PSAT2 (NO-104)          
1 44354U 19036R   20212.86295925  .00012307  00000-0  17859-3 0  9998
2 44354  28.5296  95.4047 0361987  54.8388 308.5566 15.04107806 60363
BRICSAT2 (NO-103)       
1 44355U 19036S   20211.98259197  .00024773  00000-0  34304-3 0  9996
2 44355  28.5294  90.1742 0338643  63.3198 300.1656 15.10036975 60333
JAISAT-1                
1 44419U 19038F   20212.81348288  .00000626  00000-0  39229-4 0  9995
2 44419  97.5414 173.9095 0021213 345.8646  14.1988 15.12837968 59154
DUCHIFAT-3              
1 44854U 19089C   20212.65619712  .00000180  00000-0  20978-4 0  9995
2 44854  36.9676 203.0309 0007929  45.0081 315.1314 14.99090000 34788
RS-44 & BREEZE-KM R/B   
1 44909U 19096E   20212.82855843  .00000008  00000-0 -21214-4 0  9994
2 44909  82.5240 326.4914 0218390 124.9743 237.2079 12.79708066 27736
ORBITAL FACTORY 2 (OF-2)
1 45113U 19071C   20212.82313171  .00001130  00000-0  45895-4 0  9995
2 45113  51.6439 154.0214 0012592 212.0312 147.9906 15.33474399 27789
HUSKYSAT-1              
1 45119U 19071J   20212.86069937  .00001066  00000-0  43696-4 0  9998
2 45119  51.6437 153.5229 0011874 208.4061 151.6275 15.33681880 27781
